QIANFAN-105             
1 66047U 25233Q   25334.55178000  .00000182  00000+0  10933-3 0  9990
2 66047  88.9967  63.4758 0017187  78.2646 282.0462 14.02386887  6289
QIANFAN-106             
1 66048U 25233R   25334.71663773  .00000139  00000+0  85977-4 0  9998
2 66048  88.9962  63.4623 0018087  77.9372 282.3832 13.99362030  6304
QIANFAN-107             
1 66049U 25233S   25334.69786913  .00000178  00000+0  10802-3 0  9995
2 66049  88.9967  63.4602 0017888  78.4677 281.8510 14.01803876  6308
QIANFAN-108             
1 66050U 25233T   25334.63424021  .00000188  00000+0  11718-3 0  9998
2 66050  88.9964  63.4689 0017198  80.3012 280.0109 14.00513346  6293
